{"type": "FeatureCollection", "features": [ {"type": "Feature", "properties": {"norad_id": 67070, "name": "DEAR-5", "group": "last-30-days", "lat": 40.36074005751179, "lon": 138.262401129781, "alt_km": 497.6432482498785, "timestamp": "2025-12-24T16:52:40.182256+00:00", "meta": {"OBJECT_NAME": "DEAR-5", "OBJECT_ID": "2025-296B", "EPOCH": "2025-12-23T23:03:08.623008", "MEAN_MOTION": 15.16917161, "ECCENTRICITY": 0.0016166, "INCLINATION": 41.3551, "RA_OF_ASC_NODE": 37.5614, "ARG_OF_PERICENTER": 107.8349, "MEAN_ANOMALY": 252.4237, "EPHEMERIS_TYPE": 0, "CLASSIFICATION_TYPE": "U", "NORAD_CAT_ID": 67070, "ELEMENT_SET_NO": 999, "REV_AT_EPOCH": 165, "BSTAR": 0.0002755, "MEAN_MOTION_DOT": 5.352e-05, "MEAN_MOTION_DDOT": 0}, "tle": {"line1": "1 67070U 25296B   25357.96051647  .00005352  00000+0  27550-3 0  9990", "line2": "2 67070  41.3551  37.5614 0016166 107.8349 252.4237 15.16917161  1654"}}, "geometry": {"type": "Point", "coordinates": [138.262401129781, 40.36074005751179]}}, {"type": "Feature", "properties": {"norad_id": 67071, "name": "KZ-11 R/B", "group": "last-30-days", "lat": -25.468039051682226, "lon": 1.8956166058741333, "alt_km": 288.8828665080882, "timestamp": "2025-12-24T16:52:40.182275+00:00", "meta": {"OBJECT_NAME": "KZ-11 R/B", "OBJECT_ID": "2025-296C", "EPOCH": "2025-12-23T13:32:08.952864", "MEAN_MOTION": 15.58172368, "ECCENTRICITY": 0.0391123, "INCLINATION": 41.3042, "RA_OF_ASC_NODE": 41.8002, "ARG_OF_PERICENTER": 29.8317, "MEAN_ANOMALY": 332.421, "EPHEMERIS_TYPE": 0, "CLASSIFICATION_TYPE": "U", "NORAD_CAT_ID": 67071, "ELEMENT_SET_NO": 999, "REV_AT_EPOCH": 157, "BSTAR": 0.0004340719, "MEAN_MOTION_DOT": 0.08905056, "MEAN_MOTION_DDOT": 7.462205e-06}, "tle": {"line1": "1 67071U 25296C   25357.56399251  .08905056  74622-5  43407-3 0  9997", "line2": "2 67071  41.3042  41.8002 0391123  29.8317 332.4210 15.58172368  1575"}}, "geometry": {"type": "Point", "coordinates": [1.8956166058741333, -25.468039051682226]}}, {"type": "Feature", "properties": {"norad_id": 67072, "name": "ELECTRON R/B", "group": "last-30-days", "lat": -27.6974870102221, "lon": 151.28210685713, "alt_km": 172.84989199189022, "timestamp": "2025-12-24T16:52:40.182286+00:00", "meta": {"OBJECT_NAME": "ELECTRON R/B", "OBJECT_ID": "2025-297A", "EPOCH": "2025-12-24T06:44:33.518400", "MEAN_MOTION": 16.35808035, "ECCENTRICITY": 0.00508603, "INCLINATION": 97.4545, "RA_OF_ASC_NODE": 146.8421, "ARG_OF_PERICENTER": 206.0696, "MEAN_ANOMALY": 153.804, "EPHEMERIS_TYPE": 0, "CLASSIFICATION_TYPE": "U", "NORAD_CAT_ID": 67072, "ELEMENT_SET_NO": 999, "REV_AT_EPOCH": 162, "BSTAR": 0.0004607887, "MEAN_MOTION_DOT": 0.10667753, "MEAN_MOTION_DDOT": 2.046897e-06}, "tle": {"line1": "1 67072U 25297A   25358.28094350  .10667753  20469-5  46079-3 0  9991", "line2": "2 67072  97.4545 146.8421 0050860 206.0696 153.8040 16.35808035  1621"}}, "geometry": {"type": "Point", "coordinates": [151.28210685713, -27.6974870102221]}}, {"type": "Feature", "properties": {"norad_id": 67073, "name": "RAISE-4", "group": "last-30-days", "lat": -67.29931929985248, "lon": 164.24929393890488, "alt_km": 544.2692511263967, "timestamp": "2025-12-24T16:52:40.182296+00:00", "meta": {"OBJECT_NAME": "RAISE-4", "OBJECT_ID": "2025-297B", "EPOCH": "2025-12-24T04:26:03.238944", "MEAN_MOTION": 15.07218541, "ECCENTRICITY": 0.00115252, "INCLINATION": 97.4855, "RA_OF_ASC_NODE": 145.4254, "ARG_OF_PERICENTER": 277.8483, "MEAN_ANOMALY": 82.1437, "EPHEMERIS_TYPE": 0, "CLASSIFICATION_TYPE": "U", "NORAD_CAT_ID": 67073, "ELEMENT_SET_NO": 999, "REV_AT_EPOCH": 151, "BSTAR": 0.00032127932, "MEAN_MOTION_DOT": 4.785e-05, "MEAN_MOTION_DDOT": 0}, "tle": {"line1": "1 67073U 25297B   25358.18475971  .00004785  00000+0  32128-3 0  9995", "line2": "2 67073  97.4855 145.4254 0011525 277.8483  82.1437 15.07218541  1517"}}, "geometry": {"type": "Point", "coordinates": [164.24929393890488, -67.29931929985248]}}, {"type": "Feature", "properties": {"norad_id": 67074, "name": "ELECTRON KICK STAGE R/B", "group": "last-30-days", "lat": -7.58789194868756, "lon": 147.7437114555119, "alt_km": 468.52862816818106, "timestamp": "2025-12-24T16:52:40.182310+00:00", "meta": {"OBJECT_NAME": "ELECTRON KICK STAGE R/B", "OBJECT_ID": "2025-297C", "EPOCH": "2025-12-24T04:35:22.445664", "MEAN_MOTION": 15.59088152, "ECCENTRICITY": 0.01922391, "INCLINATION": 97.482, "RA_OF_ASC_NODE": 146.2013, "ARG_OF_PERICENTER": 227.9233, "MEAN_ANOMALY": 130.5537, "EPHEMERIS_TYPE": 0, "CLASSIFICATION_TYPE": "U", "NORAD_CAT_ID": 67074, "ELEMENT_SET_NO": 999, "REV_AT_EPOCH": 156, "BSTAR": 0.0018597472, "MEAN_MOTION_DOT": 0.00360695, "MEAN_MOTION_DDOT": 3.7231607e-05}, "tle": {"line1": "1 67074U 25297C   25358.19123201  .00360695  37232-4  18597-2 0  9993", "line2": "2 67074  97.4820 146.2013 0192239 227.9233 130.5537 15.59088152  1567"}}, "geometry": {"type": "Point", "coordinates": [147.7437114555119, -7.58789194868756]}}, {"type": "Feature", "properties": {"norad_id": 67075, "name": "STARLINK-36230", "group": "last-30-days", "lat": 55.253581050464895, "lon": -112.34080389953412, "alt_km": 318.8242599186069, "timestamp": "2025-12-24T16:52:40.182321+00:00", "meta": {"OBJECT_NAME": "STARLINK-36230", "OBJECT_ID": "2025-298A", "EPOCH": "2025-12-24T06:00:02.000160", "MEAN_MOTION": 15.84517441, "ECCENTRICITY": 0.00039801, "INCLINATION": 69.9965, "RA_OF_ASC_NODE": 217.2761, "ARG_OF_PERICENTER": 272.32, "MEAN_ANOMALY": 85.6581, "EPHEMERIS_TYPE": 0, "CLASSIFICATION_TYPE": "U", "NORAD_CAT_ID": 67075, "ELEMENT_SET_NO": 999, "REV_AT_EPOCH": 282, "BSTAR": -0.0087884801, "MEAN_MOTION_DOT": -0.01748145, "MEAN_MOTION_DDOT": 0}, "tle": {"line1": "1 67075U 25298A   25358.25002315 -.01748145  00000+0 -87885-2 0  9991", "line2": "2 67075  69.9965 217.2761 0003980 272.3200  85.6581 15.84517441  2828"}}, "geometry": {"type": "Point", "coordinates": [-112.34080389953412, 55.253581050464895]}}, {"type": "Feature", "properties": {"norad_id": 67076, "name": "STARLINK-36240", "group": "last-30-days", "lat": 56.78640537360372, "lon": -110.21706634694623, "alt_km": 318.67175348241744, "timestamp": "2025-12-24T16:52:40.182331+00:00", "meta": {"OBJECT_NAME": "STARLINK-36240", "OBJECT_ID": "2025-298B", "EPOCH": "2025-12-24T06:00:02.000160", "MEAN_MOTION": 15.84517915, "ECCENTRICITY": 0.00039789, "INCLINATION": 69.9966, "RA_OF_ASC_NODE": 217.2735, "ARG_OF_PERICENTER": 272.3103, "MEAN_ANOMALY": 87.6048, "EPHEMERIS_TYPE": 0, "CLASSIFICATION_TYPE": "U", "NORAD_CAT_ID": 67076, "ELEMENT_SET_NO": 999, "REV_AT_EPOCH": 282, "BSTAR": -0.0087912515, "MEAN_MOTION_DOT": -0.01748652, "MEAN_MOTION_DDOT": 0}, "tle": {"line1": "1 67076U 25298B   25358.25002315 -.01748652  00000+0 -87913-2 0  9997", "line2": "2 67076  69.9966 217.2735 0003978 272.3103  87.6048 15.84517915  2826"}}, "geometry": {"type": "Point", "coordinates": [-110.21706634694623, 56.78640537360372]}}, {"type": "Feature", "properties": {"norad_id": 67077, "name": "STARLINK-36243", "group": "last-30-days", "lat": 58.5193989117699, "lon": -107.51948695361901, "alt_km": 318.44798416503363, "timestamp": "2025-12-24T16:52:40.182341+00:00", "meta": {"OBJECT_NAME": "STARLINK-36243", "OBJECT_ID": "2025-298C", "EPOCH": "2025-12-24T06:00:02.000160", "MEAN_MOTION": 15.84508452, "ECCENTRICITY": 0.00038967, "INCLINATION": 69.9963, "RA_OF_ASC_NODE": 217.2709, "ARG_OF_PERICENTER": 274.0932, "MEAN_ANOMALY": 88.0915, "EPHEMERIS_TYPE": 0, "CLASSIFICATION_TYPE": "U", "NORAD_CAT_ID": 67077, "ELEMENT_SET_NO": 999, "REV_AT_EPOCH": 282, "BSTAR": -0.0088057812, "MEAN_MOTION_DOT": -0.01750342, "MEAN_MOTION_DDOT": 0}, "tle": {"line1": "1 67077U 25298C   25358.25002315 -.01750342  00000+0 -88058-2 0  9998", "line2": "2 67077  69.9963 217.2709 0003896 274.0932  88.0915 15.84508452  2827"}}, "geometry": {"type": "Point", "coordinates": [-107.51948695361901, 58.5193989117699]}}, {"type": "Feature", "properties": {"norad_id": 67078, "name": "STARLINK-36236", "group": "last-30-days", "lat": 59.858157536592714, "lon": -105.1721882305914, "alt_km": 318.3678035987832, "timestamp": "2025-12-24T16:52:40.182352+00:00", "meta": {"OBJECT_NAME": "STARLINK-36236", "OBJECT_ID": "2025-298D", "EPOCH": "2025-12-24T06:00:02.000160", "MEAN_MOTION": 15.84512378, "ECCENTRICITY": 0.00039633, "INCLINATION": 69.9965, "RA_OF_ASC_NODE": 217.2685, "ARG_OF_PERICENTER": 273.6493, "MEAN_ANOMALY": 90.3274, "EPHEMERIS_TYPE": 0, "CLASSIFICATION_TYPE": "U", "NORAD_CAT_ID": 67078, "ELEMENT_SET_NO": 999, "REV_AT_EPOCH": 282, "BSTAR": -0.0088066975, "MEAN_MOTION_DOT": -0.01750872, "MEAN_MOTION_DDOT": 0}, "tle": {"line1": "1 67078U 25298D   25358.25002315 -.01750872  00000+0 -88067-2 0  9997", "line2": "2 67078  69.9965 217.2685 0003963 273.6493  90.3274 15.84512378  2821"}}, "geometry": {"type": "Point", "coordinates": [-105.1721882305914, 59.858157536592714]}}, {"type": "Feature", "properties": {"norad_id": 67079, "name": "STARLINK-36159", "group": "last-30-days", "lat": 61.48045822713483, "lon": -101.93389333364001, "alt_km": 318.22471212295386, "timestamp": "2025-12-24T16:52:40.182364+00:00", "meta": {"OBJECT_NAME": "STARLINK-36159", "OBJECT_ID": "2025-298E", "EPOCH": "2025-12-24T06:00:02.000160", "MEAN_MOTION": 15.84500756, "ECCENTRICITY": 0.00038676, "INCLINATION": 69.9966, "RA_OF_ASC_NODE": 217.2662, "ARG_OF_PERICENTER": 272.3654, "MEAN_ANOMALY": 93.8996, "EPHEMERIS_TYPE": 0, "CLASSIFICATION_TYPE": "U", "NORAD_CAT_ID": 67079, "ELEMENT_SET_NO": 999, "REV_AT_EPOCH": 282, "BSTAR": -0.0088194611, "MEAN_MOTION_DOT": -0.01752082, "MEAN_MOTION_DDOT": 0}, "tle": {"line1": "1 67079U 25298E   25358.25002315 -.01752082  00000+0 -88195-2 0  9995", "line2": "2 67079  69.9966 217.2662 0003867 272.3654  93.8996 15.84500756  2822"}}, "geometry": {"type": "Point", "coordinates": [-101.93389333364001, 61.48045822713483]}}]}